ASTRA 2E                
1 39285U 13056A   26192.64188420  .00000156  00000+0  00000+0 0  9995
2 39285   0.0820 308.9432 0002771 177.5299  62.6474  1.00273291 46661
FM-6                    
1 39360U 13058A   26192.54191282 -.00000010  00000+0  00000+0 0  9990
2 39360   0.0153  50.7519 0001365 129.7450 187.6804  1.00269912 46310
RADUGA-1M 3             
1 39375U 13062A   26192.69614259  .00000152  00000+0  00000+0 0  9997
2 39375   6.0180  72.0388 0001994 272.5681 230.5827  1.00270532 46351
SES-8                   
1 39460U 13071A   26192.71679200 -.00000264  00000+0  00000+0 0  9997
2 39460   0.0488 263.2114 0002604 207.5927 171.8614  1.00270893 44676
INMARSAT 5-F1           
1 39476U 13073A   26192.36339308  .00000034  00000+0  00000+0 0  9993
2 39476   0.0178  39.8684 0000476 257.6288 185.2295  1.00271559 45821
TKSAT-1 (TUPAC KATARI)  
1 39481U 13075A   26192.61891743 -.00000189  00000+0  00000+0 0  9997
2 39481   0.0550 235.5582 0002342 231.9884 317.5935  1.00271090 45847
EXPRESS-AM5             
1 39487U 13077A   26192.14003159 -.00000273  00000+0  00000+0 0  9993
2 39487   0.0244 289.1832 0000091 315.5662 234.7387  1.00271331 46602
GSAT-14                 
1 39498U 14001A   26192.65084797  .00000000  00000+0  00000+0 0  9993
2 39498   0.0239  52.8426 0001924 161.4318  23.5604  1.00270107 45621
THAICOM 6               
1 39500U 14002A   26192.43794446 -.00000115  00000+0  00000+0 0  9991
2 39500   0.0423 119.9237 0004233   4.2278  41.3235  1.00272880 45707
TDRS 12                 
1 39504U 14004A   26192.77070285 -.00000268  00000+0  00000+0 0  9991
2 39504   4.0012  19.4756 0004300 204.2692 302.5000  1.00273556 44528
ABS-2                   
1 39508U 14006A   26192.67950265 -.00000081  00000+0  00000+0 0  9994
2 39508   0.0224 297.2029 0003299 160.1137 151.7973  1.00271037 45528
ATHENA-FIDUS            
1 39509U 14006B   26192.68769554  .00000159  00000+0  00000+0 0  9990
2 39509   0.0155 100.5051 0001269  14.3548 100.0982  1.00269859 45339
TURKSAT 4A              
1 39522U 14007A   26192.54628030  .00000152  00000+0  00000+0 0  9997
2 39522   0.0666 285.6226 0001190 325.8620 276.6134  1.00272154 45212
EXPRESS-AT1             
1 39612U 14010A   26192.79176912  .00000000  00000+0  00000+0 0  9997
2 39612   0.3173  85.4769 0004413  54.3883 140.2939  1.00308619 45060
EXPRESS-AT2             
1 39613U 14010B   26192.67919678  .00000084  00000+0  00000+0 0  9991
2 39613   0.0151 348.9903 0000677 313.6558 287.4391  1.00272087 44748
AMAZONAS 4A             
1 39616U 14011A   26192.76402949 -.00000248  00000+0  00000+0 0  9996
2 39616   0.0606 202.5552 0004626 294.5296 353.6453  1.00270550 44967
ASTRA 5B                
1 39617U 14011B   26192.67861603  .00000142  00000+0  00000+0 0  9995
2 39617   0.0845 298.2290 0002001 190.3786  68.7775  1.00272417 44916
IRNSS-1B                
1 39635U 14017A   26191.72026316  .00000149  00000+0  00000+0 0  9997
2 39635  28.8825 239.9967 0022327 191.5584 171.4704  1.00274378 45033
LUCH-5V                 
1 39727U 14023A   26192.72797284 -.00000269  00000+0  00000+0 0  9990
2 39727   5.1895  69.4840 0002020  77.0807 139.8233  1.00275171 44609
KAZSAT-3                
1 39728U 14023B   26192.63100295  .00000066  00000+0  00000+0 0  9995
2 39728   0.0112   2.5963 0000262 278.4792 294.1183  1.00270443 42701
EUTELSAT 3B             
1 39773U 14030A   26192.63685751  .00000025  00000+0  00000+0 0  9993
2 39773   0.0613 352.1938 0004086 121.6987  48.0116  1.00269963 44312
ASIASAT 8 (AMOS-7)      
1 40107U 14046A   26192.69697566  .00000000  00000+0  00000+0 0  9999
2 40107   0.0259  33.3498 0001301  93.6777 158.7911  1.00267342102396
ASIASAT 6               
1 40141U 14052A   26192.80251583  .00000000  00000+0  00000+0 0  9992
2 40141   0.0280  46.4214 0000757 106.3388 185.7699  1.00272036 43329
OPTUS 10                
1 40146U 14054A   26191.46610286 -.00000137  00000+0  00000+0 0  9991
2 40146   0.0483  69.5916 0001946  41.3086 141.2837  1.00271044 43260
MEASAT-3B               
1 40147U 14054B   26192.72775788 -.00000237  00000+0  00000+0 0  9992
2 40147   0.0372  44.3651 0003483  22.2286 216.5211  1.00270533 43155
HIMAWARI-8              
1 40267U 14060A   26192.73534267 -.00000271  00000+0  00000+0 0  9996
2 40267   0.0232 305.2214 0001045 223.4208 166.3807  1.00272623 43007
IRNSS-1C                
1 40269U 14061A   26192.72539227 -.00000165  00000+0  00000+0 0  9991
2 40269   6.5783  88.4649 0022139   5.0557 180.2800  1.00272896 42932
INTELSAT 30 (IS-30)     
1 40271U 14062A   26192.54607285 -.00000145  00000+0  00000+0 0  9993
2 40271   0.0173  47.6311 0001485 329.8917  13.4681  1.00268802  7036
ARSAT 1                 
1 40272U 14062B   26192.55066620 -.00000254  00000+0  00000+0 0  9998
2 40272   0.0462 284.2474 0001717 185.4899 306.1597  1.00271066 42864
EUTELSAT 53A            
1 40277U 14064A   26192.21895435  .00000105  00000+0  00000+0 0  9996
2 40277   0.0142 315.3160 0001701 242.3457 223.2816  1.00269242 41807
GSAT-16                 
1 40332U 14078A   26192.64712130  .00000090  00000+0  00000+0 0  9993
2 40332   0.0165 305.7124 0007252 146.3240 125.5543  1.00272232 42352
DIRECTV 14              
1 40333U 14078B   26192.61657742 -.00000120  00000+0  00000+0 0  9993
2 40333   0.0110  38.2928 0000269 271.2955 102.6579  1.00269975 42282
