OBJECT_NAME,OBJECT_ID,EPOCH,MEAN_MOTION,ECCENTRICITY,INCLINATION,RA_OF_ASC_NODE,ARG_OF_PERICENTER,MEAN_ANOMALY,EPHEMERIS_TYPE,CLASSIFICATION_TYPE,NORAD_CAT_ID,ELEMENT_SET_NO,REV_AT_EPOCH,BSTAR,MEAN_MOTION_DOT,MEAN_MOTION_DDOT
ASTRA 2E,2013-056A,2026-07-11T15:24:18.794880,1.00273291,.00027719,0.0820,308.9432,177.5299,62.6474,0,U,39285,999,4666,0,.156E-5,0
FM-6,2013-058A,2026-07-11T13:00:21.267648,1.00269912,.00013654,0.0153,50.7519,129.7450,187.6804,0,U,39360,999,4631,0,-.1E-6,0
RADUGA-1M 3,2013-062A,2026-07-11T16:42:26.719776,1.00270532,.00019949,6.0180,72.0388,272.5681,230.5827,0,U,39375,999,4635,0,.152E-5,0
SES-8,2013-071A,2026-07-11T17:12:10.828800,1.00270893,.00026046,0.0488,263.2114,207.5927,171.8614,0,U,39460,999,4467,0,-.264E-5,0
INMARSAT 5-F1,2013-073A,2026-07-11T08:43:17.162112,1.00271559,.00004769,0.0178,39.8684,257.6288,185.2295,0,U,39476,999,4582,0,.34E-6,0
TKSAT-1 (TUPAC KATARI),2013-075A,2026-07-11T14:51:14.465952,1.00271090,.00023425,0.0550,235.5582,231.9884,317.5935,0,U,39481,999,4584,0,-.189E-5,0
EXPRESS-AM5,2013-077A,2026-07-11T03:21:38.729376,1.00271331,.00000912,0.0244,289.1832,315.5662,234.7387,0,U,39487,999,4660,0,-.273E-5,0
GSAT-14,2014-001A,2026-07-11T15:37:13.264608,1.00270107,.00019243,0.0239,52.8426,161.4318,23.5604,0,U,39498,999,4562,0,0,0
THAICOM 6,2014-002A,2026-07-11T10:30:38.401344,1.00272880,.00042336,0.0423,119.9237,4.2278,41.3235,0,U,39500,999,4570,0,-.115E-5,0
TDRS 12,2014-004A,2026-07-11T18:29:48.726240,1.00273556,.00043008,4.0012,19.4756,204.2692,302.5000,0,U,39504,999,4452,0,-.268E-5,0
ABS-2,2014-006A,2026-07-11T16:18:29.028960,1.00271037,.00032994,0.0224,297.2029,160.1137,151.7973,0,U,39508,999,4552,0,-.81E-6,0
ATHENA-FIDUS,2014-006B,2026-07-11T16:30:16.894656,1.00269859,.00012692,0.0155,100.5051,14.3548,100.0982,0,U,39509,999,4533,0,.159E-5,0
TURKSAT 4A,2014-007A,2026-07-11T13:06:38.617920,1.00272154,.00011906,0.0666,285.6226,325.8620,276.6134,0,U,39522,999,4521,0,.152E-5,0
EXPRESS-AT1,2014-010A,2026-07-11T19:00:08.851968,1.00308619,.00044139,0.3173,85.4769,54.3883,140.2939,0,U,39612,999,4506,0,0,0
EXPRESS-AT2,2014-010B,2026-07-11T16:18:02.601792,1.00272087,.00006777,0.0151,348.9903,313.6558,287.4391,0,U,39613,999,4474,0,.84E-6,0
AMAZONAS 4A,2014-011A,2026-07-11T18:20:12.147936,1.00270550,.00046266,0.0606,202.5552,294.5296,353.6453,0,U,39616,999,4496,0,-.248E-5,0
ASTRA 5B,2014-011B,2026-07-11T16:17:12.424992,1.00272417,.00020011,0.0845,298.2290,190.3786,68.7775,0,U,39617,999,4491,0,.142E-5,0
IRNSS-1B,2014-017A,2026-07-10T17:17:10.737024,1.00274378,.00223275,28.8825,239.9967,191.5584,171.4704,0,U,39635,999,4503,0,.149E-5,0
LUCH-5V,2014-023A,2026-07-11T17:28:16.853376,1.00275171,.00020203,5.1895,69.4840,77.0807,139.8233,0,U,39727,999,4460,0,-.269E-5,0
KAZSAT-3,2014-023B,2026-07-11T15:08:38.654880,1.00270443,.00002622,0.0112,2.5963,278.4792,294.1183,0,U,39728,999,4270,0,.66E-6,0
EUTELSAT 3B,2014-030A,2026-07-11T15:17:04.488864,1.00269963,.0004086,0.0613,352.1938,121.6987,48.0116,0,U,39773,999,4431,0,.25E-6,0
ASIASAT 8 (AMOS-7),2014-046A,2026-07-11T16:43:38.697024,1.00267342,.0001301,0.0259,33.3498,93.6777,158.7911,0,U,40107,999,10239,0,0,0
ASIASAT 6,2014-052A,2026-07-11T19:15:37.367712,1.00272036,.0000757,0.0280,46.4214,106.3388,185.7699,0,U,40141,999,4332,0,0,0
OPTUS 10,2014-054A,2026-07-10T11:11:11.287104,1.00271044,.00019462,0.0483,69.5916,41.3086,141.2837,0,U,40146,999,4326,0,-.137E-5,0
MEASAT-3B,2014-054B,2026-07-11T17:27:58.280832,1.00270533,.00034833,0.0372,44.3651,22.2286,216.5211,0,U,40147,999,4315,0,-.237E-5,0
HIMAWARI-8,2014-060A,2026-07-11T17:38:53.606688,1.00272623,.00010458,0.0232,305.2214,223.4208,166.3807,0,U,40267,999,4300,0,-.271E-5,0
IRNSS-1C,2014-061A,2026-07-11T17:24:33.892128,1.00272896,.00221392,6.5783,88.4649,5.0557,180.2800,0,U,40269,999,4293,0,-.165E-5,0
INTELSAT 30 (IS-30),2014-062A,2026-07-11T13:06:20.694240,1.00268802,.00014858,0.0173,47.6311,329.8917,13.4681,0,U,40271,999,703,0,-.145E-5,0
ARSAT 1,2014-062B,2026-07-11T13:12:57.559680,1.00271066,.00017179,0.0462,284.2474,185.4899,306.1597,0,U,40272,999,4286,0,-.254E-5,0
EUTELSAT 53A,2014-064A,2026-07-11T05:15:17.655840,1.00269242,.00017013,0.0142,315.3160,242.3457,223.2816,0,U,40277,999,4180,0,.105E-5,0
GSAT-16,2014-078A,2026-07-11T15:31:51.280320,1.00272232,.00072521,0.0165,305.7124,146.3240,125.5543,0,U,40332,999,4235,0,.9E-6,0
DIRECTV 14,2014-078B,2026-07-11T14:47:52.289088,1.00269975,.00002694,0.0110,38.2928,271.2955,102.6579,0,U,40333,999,4228,0,-.12E-5,0
